[
    {
        "Altitude(m)": 607895.8086146163,
        "Argument of Periapsis(deg)": 0.0,
        "Eccentricity": 0.0,
        "Inclination(deg)": 60.0,
        "Latitude(deg)": 40.99831583679792,
        "Longitude(deg)": -9.911438110548215,
        "Mean Anomaly(deg)": -229.09089999999998,
        "RAAN(deg)": 300.0,
        "Satellite Name": "Test1 1328",
        "Satellite Number": 1328,
        "Semi-Major Axis(m)": 6980739.136638005,
        "Time(s)": 0
    },
    {
        "Altitude(m)": 607795.1217894035,
        "Argument of Periapsis(deg)": 0.00010418945913296404,
        "Eccentricity": 0.0,
        "Inclination(deg)": 60.0,
        "Latitude(deg)": 40.53064093465032,
        "Longitude(deg)": -9.414843077185907,
        "Mean Anomaly(deg)": -228.47079385453813,
        "RAAN(deg)": 299.99957995086027,
        "Satellite Name": "Test1 1328",
        "Satellite Number": 1328,
        "Semi-Major Axis(m)": 6980739.136638005,
        "Time(s)": 10
    },
    {
        "Altitude(m)": 607694.6105108712,
        "Argument of Periapsis(deg)": 0.0002083789182659281,
        "Eccentricity": 0.0,
        "Inclination(deg)": 60.0,
        "Latitude(deg)": 40.060456070781846,
        "Longitude(deg)": -8.925688910000028,
        "Mean Anomaly(deg)": -227.85068770907634,
        "RAAN(deg)": 299.99915990172053,
        "Satellite Name": "Test1 1328",
        "Satellite Number": 1328,
        "Semi-Major Axis(m)": 6980739.136638005,
        "Time(s)": 20
    },
    {
        "Altitude(m)": 607594.3384776184,
        "Argument of Periapsis(deg)": 0.00031256837739889213,
        "Eccentricity": 0.0,
        "Inclination(deg)": 60.0,
        "Latitude(deg)": 39.5878348190971,
        "Longitude(deg)": -8.44379000398595,
        "Mean Anomaly(deg)": -227.2305815636145,
        "RAAN(deg)": 299.9987398525808,
        "Satellite Name": "Test1 1328",
        "Satellite Number": 1328,
        "Semi-Major Axis(m)": 6980739.136638005,
        "Time(s)": 30
    },
    {
        "Altitude(m)": 607494.369488584,
        "Argument of Periapsis(deg)": 0.0004167578365318562,
        "Eccentricity": 0.0,
        "Inclination(deg)": 60.0,
        "Latitude(deg)": 39.112848513344915,
        "Longitude(deg)": -7.968963794001713,
        "Mean Anomaly(deg)": -226.61047541815267,
        "RAAN(deg)": 299.99831980344106,
        "Satellite Name": "Test1 1328",
        "Satellite Number": 1328,
        "Semi-Major Axis(m)": 6980739.136638005,
        "Time(s)": 40
    },
    {
        "Altitude(m)": 607394.7674111737,
        "Argument of Periapsis(deg)": 0.0005209472956648203,
        "Eccentricity": 0.0,
        "Inclination(deg)": 60.0,
        "Latitude(deg)": 38.635566320476165,
        "Longitude(deg)": -7.501031775216616,
        "Mean Anomaly(deg)": -225.99036927269083,
        "RAAN(deg)": 299.9978997543013,
        "Satellite Name": "Test1 1328",
        "Satellite Number": 1328,
        "Semi-Major Axis(m)": 6980739.136638005,
        "Time(s)": 50
    },
    {
        "Altitude(m)": 607295.5961492504,
        "Argument of Periapsis(deg)": 0.0006251367547977843,
        "Eccentricity": 0.0,
        "Inclination(deg)": 60.0,
        "Latitude(deg)": 38.156055312464844,
        "Longitude(deg)": -7.039818999870467,
        "Mean Anomaly(deg)": -225.37026312722904,
        "RAAN(deg)": 299.99747970516154,
        "Satellite Name": "Test1 1328",
        "Satellite Number": 1328,
        "Semi-Major Axis(m)": 6980739.136638005,
        "Time(s)": 60
    },
    {
        "Altitude(m)": 607196.9196110691,
        "Argument of Periapsis(deg)": 0.0007293262139307483,
        "Eccentricity": 0.0,
        "Inclination(deg)": 60.0,
        "Latitude(deg)": 37.67438053652125,
        "Longitude(deg)": -6.58515356434727,
        "Mean Anomaly(deg)": -224.7501569817672,
        "RAAN(deg)": 299.99705965602186,
        "Satellite Name": "Test1 1328",
        "Satellite Number": 1328,
        "Semi-Major Axis(m)": 6980739.136638005,
        "Time(s)": 70
    },
    {
        "Altitude(m)": 607098.8016771531,
        "Argument of Periapsis(deg)": 0.0008335156730637124,
        "Eccentricity": 0.0,
        "Inclination(deg)": 60.0,
        "Latitude(deg)": 37.190605083642374,
        "Longitude(deg)": -6.136867600483355,
        "Mean Anomaly(deg)": -224.13005083630537,
        "RAAN(deg)": 299.99663960688207,
        "Satellite Name": "Test1 1328",
        "Satellite Number": 1328,
        "Semi-Major Axis(m)": 6980739.136638005,
        "Time(s)": 80
    },
    {
        "Altitude(m)": 607001.306168157,
        "Argument of Periapsis(deg)": 0.0009377051321966765,
        "Eccentricity": 0.0,
        "Inclination(deg)": 60.0,
        "Latitude(deg)": 36.70479015546428,
        "Longitude(deg)": -5.69479674632471,
        "Mean Anomaly(deg)": -223.50994469084353,
        "RAAN(deg)": 299.99621955774234,
        "Satellite Name": "Test1 1328",
        "Satellite Number": 1328,
        "Semi-Major Axis(m)": 6980739.136638005,
        "Time(s)": 90
    },
    {
        "Altitude(m)": 606904.4968126452,
        "Argument of Periapsis(deg)": 0.0010418945913296407,
        "Eccentricity": 0.0,
        "Inclination(deg)": 60.0,
        "Latitude(deg)": 36.216995129387534,
        "Longitude(deg)": -5.258779610089774,
        "Mean Anomaly(deg)": -222.88983854538165,
        "RAAN(deg)": 299.9957995086026,
        "Satellite Name": "Test1 1328",
        "Satellite Number": 1328,
        "Semi-Major Axis(m)": 6980739.136638005,
        "Time(s)": 100
    },
    {
        "Altitude(m)": 606808.4372149328,
        "Argument of Periapsis(deg)": 0.0011460840504626045,
        "Eccentricity": 0.0,
        "Inclination(deg)": 60.0,
        "Latitude(deg)": 35.72727762195438,
        "Longitude(deg)": -4.828658741019403,
        "Mean Anomaly(deg)": -222.2697323999199,
        "RAAN(deg)": 299.99537945946287,
        "Satellite Name": "Test1 1328",
        "Satellite Number": 1328,
        "Semi-Major Axis(m)": 6980739.136638005,
        "Time(s)": 110
    },
    {
        "Altitude(m)": 606713.1908228808,
        "Argument of Periapsis(deg)": 0.0012502735095955685,
        "Eccentricity": 0.0,
        "Inclination(deg)": 60.0,
        "Latitude(deg)": 35.23569355047514,
        "Longitude(deg)": -4.40428008210812,
        "Mean Anomaly(deg)": -221.649626254458,
        "RAAN(deg)": 299.99495941032313,
        "Satellite Name": "Test1 1328",
        "Satellite Number": 1328,
        "Semi-Major Axis(m)": 6980739.136638005,
        "Time(s)": 120
    },
    {
        "Altitude(m)": 606618.8208957248,
        "Argument of Periapsis(deg)": 0.0013544629687285324,
        "Eccentricity": 0.0,
        "Inclination(deg)": 60.0,
        "Latitude(deg)": 34.74229719290251,
        "Longitude(deg)": -3.985492418266518,
        "Mean Anomaly(deg)": -221.0295201089962,
        "RAAN(deg)": 299.99453936118334,
        "Satellite Name": "Test1 1328",
        "Satellite Number": 1328,
        "Semi-Major Axis(m)": 6980739.136638005,
        "Time(s)": 130
    },
    {
        "Altitude(m)": 606525.3904719634,
        "Argument of Periapsis(deg)": 0.0014586524278614966,
        "Eccentricity": 0.0,
        "Inclination(deg)": 60.0,
        "Latitude(deg)": 34.24714124595524,
        "Longitude(deg)": -3.572148333401669,
        "Mean Anomaly(deg)": -220.40941396353435,
        "RAAN(deg)": 299.9941193120436,
        "Satellite Name": "Test1 1328",
        "Satellite Number": 1328,
        "Semi-Major Axis(m)": 6980739.136638005,
        "Time(s)": 140
    },
    {
        "Altitude(m)": 606432.9623372582,
        "Argument of Periapsis(deg)": 0.0015628418869944607,
        "Eccentricity": 0.0,
        "Inclination(deg)": 60.0,
        "Latitude(deg)": 33.75027688151297,
        "Longitude(deg)": -3.1641036512329603,
        "Mean Anomaly(deg)": -219.7893078180725,
        "RAAN(deg)": 299.99369926290393,
        "Satellite Name": "Test1 1328",
        "Satellite Number": 1328,
        "Semi-Major Axis(m)": 6980739.136638005,
        "Time(s)": 150
    },
    {
        "Altitude(m)": 606341.5989924659,
        "Argument of Periapsis(deg)": 0.0016670313461274247,
        "Eccentricity": 0.0,
        "Inclination(deg)": 60.0,
        "Latitude(deg)": 33.25175380129518,
        "Longitude(deg)": -2.7612168732227804,
        "Mean Anomaly(deg)": -219.1692016726107,
        "RAAN(deg)": 299.99327921376414,
        "Satellite Name": "Test1 1328",
        "Satellite Number": 1328,
        "Semi-Major Axis(m)": 6980739.136638005,
        "Time(s)": 160
    },
    {
        "Altitude(m)": 606251.3626216805,
        "Argument of Periapsis(deg)": 0.0017712208052603888,
        "Eccentricity": 0.0,
        "Inclination(deg)": 60.0,
        "Latitude(deg)": 32.751620289845924,
        "Longitude(deg)": -2.363350126957667,
        "Mean Anomaly(deg)": -218.5490955271489,
        "RAAN(deg)": 299.9928591646244,
        "Satellite Name": "Test1 1328",
        "Satellite Number": 1328,
        "Semi-Major Axis(m)": 6980739.136638005,
        "Time(s)": 170
    },
    {
        "Altitude(m)": 606162.3150604398,
        "Argument of Periapsis(deg)": 0.001875410264393353,
        "Eccentricity": 0.0,
        "Inclination(deg)": 60.0,
        "Latitude(deg)": 32.249923265855905,
        "Longitude(deg)": -1.9703685996510683,
        "Mean Anomaly(deg)": -217.92898938168705,
        "RAAN(deg)": 299.9924391154847,
        "Satellite Name": "Test1 1328",
        "Satellite Number": 1328,
        "Semi-Major Axis(m)": 6980739.136638005,
        "Time(s)": 180
    },
    {
        "Altitude(m)": 606074.5177640045,
        "Argument of Periapsis(deg)": 0.0019795997235263173,
        "Eccentricity": 0.0,
        "Inclination(deg)": 60.0,
        "Latitude(deg)": 31.746708331849906,
        "Longitude(deg)": -1.5821399700169583,
        "Mean Anomaly(deg)": -217.30888323622526,
        "RAAN(deg)": 299.99201906634494,
        "Satellite Name": "Test1 1328",
        "Satellite Number": 1328,
        "Semi-Major Axis(m)": 6980739.136638005,
        "Time(s)": 190
    }
]